     2.10           NAVIGATION                              RINEX VERSION / TYPE
fic2rin                                 06/03/2008 01:17:50 PGM / RUN BY / DATE
                                                            END OF HEADER
27 08  6  2 19 59 44.0  .192780047655D-03  .261479726760D-11  .000000000000D+00
     .100000000000D+02 -.136812500000D+03  .427124934325D-08  .720277569080D+00
    -.710040330887D-05  .210597742116D-01  .111553817987D-04  .515377575302D+04
     .158384000000D+06 -.318512320518D-06  .279458244480D+01  .186264514923D-08
     .969808431888D+00  .180875000000D+03 -.170731054765D+01 -.812926718804D-08
     .271439877989D-10  .100000000000D+01  .148200000000D+04  .000000000000D+00
     .240000000000D+01  .000000000000D+00 -.419095158577D-08  .100000000000D+02
     .152946000000D+06  .400000000000D+01
19 08  6  2 19 59 44.0  .312034972012D-04  .795807864051D-12  .000000000000D+00
     .110000000000D+02 -.122187500000D+02  .477841332581D-08 -.141794649996D+01
    -.590458512306D-06  .472144770902D-02  .700540840626D-05  .515367844963D+04
     .158384000000D+06 -.521540641785D-07 -.126481501313D+01  .465661287308D-07
     .956942592569D+00  .244500000000D+03 -.605966184650D+00 -.799068998717D-08
    -.526450500205D-09  .100000000000D+01  .148200000000D+04  .000000000000D+00
     .240000000000D+01  .000000000000D+00 -.144354999065D-07  .110000000000D+02
     .153456000000D+06  .400000000000D+01
21 08  6  2 19 59 44.0  .624642707407D-04 -.113686837722D-11  .000000000000D+00
     .110000000000D+02  .947500000000D+02  .456340436982D-08  .156126219709D+01
     .507384538651D-05  .139838830801D-01  .117849558592D-04  .515372482491D+04
     .158384000000D+06 -.160187482834D-06 -.261815098564D+00  .128522515297D-06
     .936602141559D+00  .140656250000D+03 -.272155313102D+01 -.797211778499D-08
    -.490020411317D-09  .100000000000D+01  .148200000000D+04  .000000000000D+00
     .240000000000D+01  .000000000000D+00 -.116415321827D-07  .110000000000D+02
     .154506000000D+06  .400000000000D+01
16 08  6  2 19 59 44.0  .122794881463D-03 -.147792889038D-11  .000000000000D+00
     .900000000000D+01  .109375000000D+02  .466233706220D-08  .205656163388D+00
     .383704900742D-06  .478882994503D-02  .772625207901D-05  .515359515190D+04
     .158384000000D+06  .763684511185D-07 -.236322478148D+01 -.149011611938D-07
     .965557420165D+00  .234937500000D+03 -.489065634175D+00 -.794711674360D-08
     .430375069706D-09  .100000000000D+01  .148200000000D+04  .000000000000D+00
     .240000000000D+01  .000000000000D+00 -.977888703346D-08  .900000000000D+01
     .157716000000D+06  .400000000000D+01
16 08  6  2 21 59 44.0  .122784171253D-03 -.147792889038D-11  .000000000000D+00
     .100000000000D+02  .146250000000D+02  .478091342995D-08  .125579015153D+01
     .819563865662D-06  .478911271784D-02  .717677175999D-05  .515359613991D+04
     .165584000000D+06  .502914190292D-07 -.236328208544D+01 -.372529029846D-08
     .965560436702D+00  .237062500000D+03 -.488969333204D+00 -.796283168390D-08
     .427160650099D-09  .100000000000D+01  .148200000000D+04  .000000000000D+00
     .240000000000D+01  .000000000000D+00 -.977888703346D-08  .100000000000D+02
     .158406000000D+06  .400000000000D+01
19 08  6  2 21 59 44.0  .312090851367D-04  .795807864051D-12  .000000000000D+00
     .120000000000D+02 -.133125000000D+02  .481877214977D-08 -.367783807900D+00
    -.694766640663D-06  .472147867549D-02  .707805156708D-05  .515367836952D+04
     .165584000000D+06  .186264514923D-07 -.126487175533D+01 -.135973095894D-06
     .956938225758D+00  .245031250000D+03 -.605949273317D+00 -.801426239763D-08
    -.686814322859D-09  .100000000000D+01  .148200000000D+04  .000000000000D+00
     .240000000000D+01  .000000000000D+00 -.144354999065D-07  .120000000000D+02
     .158406000000D+06  .400000000000D+01
21 08  6  2 21 59 44.0  .624558888376D-04 -.113686837722D-11  .000000000000D+00
     .120000000000D+02  .863125000000D+02  .448054377549D-08  .261133926602D+01
     .440701842308D-05  .139839469921D-01  .119730830193D-04  .515372638512D+04
     .165584000000D+06 -.173225998878D-06 -.261872640984D+00 -.132247805595D-06
     .936599758465D+00  .134781250000D+03 -.272148121982D+01 -.776675208783D-08
    -.387516141603D-09  .100000000000D+01  .148200000000D+04  .000000000000D+00
     .240000000000D+01  .000000000000D+00 -.116415321827D-07  .120000000000D+02
     .158406000000D+06  .400000000000D+01
27 08  6  2 21 59 44.0  .192799139768D-03  .261479726760D-11  .000000000000D+00
     .110000000000D+02 -.160312500000D+03  .400623830448D-08  .177031749891D+01
    -.850111246109D-05  .210616480326D-01  .110547989607D-04  .515377967072D+04
     .165584000000D+06 -.372529029846D-08  .279452430258D+01 -.551342964172D-06
     .969811525960D+00  .175531250000D+03 -.170723685462D+01 -.758567311659D-08
     .203222750758D-09  .100000000000D+01  .148200000000D+04  .000000000000D+00
     .240000000000D+01  .000000000000D+00 -.419095158577D-08  .110000000000D+02
     .158406000000D+06  .400000000000D+01
 2 08  6  2 22  0  0.0  .205908901989D-03  .682121026330D-12  .000000000000D+00
     .230000000000D+02  .751250000000D+02  .434910972931D-08 -.828075974928D+00
     .394135713577D-05  .881378201302D-02  .124983489513D-04  .515374137878D+04
     .165600000000D+06 -.236555933952D-06 -.296209376389D+00 -.199303030968D-06
     .943750193361D+00  .133000000000D+03  .256950082275D+01 -.781175396234D-08
    -.386801826134D-09  .100000000000D+01  .148200000000D+04  .000000000000D+00
     .240000000000D+01  .000000000000D+00 -.172294676304D-07  .230000000000D+02
     .158406000000D+06  .400000000000D+01
 3 08  6  2 22  0  0.0  .236794818193D-03  .522959453519D-11  .000000000000D+00
     .820000000000D+02 -.165937500000D+02  .568952270574D-08 -.124335323394D+01
    -.886619091034D-06  .106236981228D-01  .549480319023D-05  .515367232513D+04
     .165600000000D+06  .303611159325D-06 -.144005967707D+01  .104308128357D-06
     .925404407745D+00  .254406250000D+03  .814208939345D+00 -.845285209522D-08
    -.555380276675D-09  .100000000000D+01  .148200000000D+04  .000000000000D+00
     .340000000000D+01  .000000000000D+00 -.419095158577D-08  .820000000000D+02
     .158406000000D+06  .400000000000D+01
 4 08  6  2 22  0  0.0 -.817235559225D-04 -.898126018001D-11  .000000000000D+00
     .180000000000D+02  .873437500000D+02  .437232498203D-08  .185422399482D+01
     .459887087345D-05  .805998430587D-02  .127851963043D-04  .515379365730D+04
     .165600000000D+06 -.121071934700D-06 -.277367875131D+00 -.372529029846D-08
     .943063760014D+00  .125812500000D+03  .378580759214D+00 -.782818321811D-08
    -.575023952056D-09  .100000000000D+01  .148200000000D+04  .000000000000D+00
     .240000000000D+01  .000000000000D+00 -.605359673500D-08  .180000000000D+02
     .158406000000D+06  .400000000000D+01
 5 08  6  2 22  0  0.0  .787019729614D-03  .864019966684D-11  .000000000000D+00
     .900000000000D+01  .104687500000D+02  .512807074759D-08  .147036923599D+01
     .379979610443D-06  .880317541305D-02  .883266329765D-05  .515358229065D+04
     .165600000000D+06 -.273808836937D-06 -.247318206089D+01 -.135973095894D-06
     .942681231806D+00  .201687500000D+03  .122320896903D+01 -.819891294621D-08
     .610739725475D-09  .100000000000D+01  .148200000000D+04  .000000000000D+00
     .240000000000D+01  .000000000000D+00 -.419095158577D-08  .900000000000D+01
     .158406000000D+06  .400000000000D+01
 6 08  6  2 22  0  0.0  .140826217830D-03  .738964445191D-11  .000000000000D+00
     .850000000000D+02 -.236562500000D+02  .548201406218D-08  .145232671476D+01
    -.158138573170D-05  .547149998602D-02  .606663525105D-05  .515498338509D+04
     .165600000000D+06 -.931322574615D-08 -.137533892606D+01 -.763684511185D-07
     .932990350427D+00  .249343750000D+03 -.164929672744D+01 -.838070623291D-08
    -.650741391705D-09  .100000000000D+01  .148200000000D+04  .000000000000D+00
     .240000000000D+01  .000000000000D+00 -.465661287308D-08  .850000000000D+02
     .158406000000D+06  .400000000000D+01
 7 08  6  2 22  0  0.0 -.289320014417D-04  .807176547823D-11  .000000000000D+00
     .360000000000D+02 -.139375000000D+03  .425089135240D-08 -.245982273541D+01
    -.707246363163D-05  .170384626836D-02  .118929892778D-04  .515371852684D+04
     .165600000000D+06 -.577419996262D-07  .285494262761D+01  .335276126862D-07
     .962771874924D+00  .152875000000D+03  .260841243800D+01 -.768996317498D-08
     .238224208709D-09  .100000000000D+01  .148200000000D+04  .000000000000D+00
     .240000000000D+01  .000000000000D+00 -.107102096081D-07  .360000000000D+02
     .158406000000D+06  .400000000000D+01
 8 08  6  2 22  0  0.0 -.155735760927D-03 -.159161572810D-11  .000000000000D+00
     .810000000000D+02 -.144093750000D+03  .368086760862D-08  .295955708881D+01
    -.719726085663D-05  .101745305583D-01  .117942690849D-04  .515362039375D+04
     .165600000000D+06 -.197440385818D-06  .290783406504D+01  .135973095894D-06
     .983976284390D+00  .166531250000D+03  .288032988999D+01 -.733994859546D-08
     .298583865788D-09  .100000000000D+01  .148200000000D+04  .000000000000D+00
     .340000000000D+01  .000000000000D+00 -.372529029846D-08  .810000000000D+02
     .158406000000D+06  .400000000000D+01
 9 08  6  2 22  0  0.0  .127299688756D-03  .170530256582D-11  .000000000000D+00
     .810000000000D+02 -.145062500000D+03  .396337937637D-08  .257962667795D+01
    -.755488872528D-05  .199365315493D-01  .106450170279D-04  .515367411041D+04
     .165600000000D+06  .219792127609D-06  .281833566425D+01 -.238418579102D-06
     .971796392729D+00  .177187500000D+03  .140500644681D+01 -.731351892313D-08
     .778603860547D-10  .100000000000D+01  .148200000000D+04  .000000000000D+00
     .340000000000D+01  .000000000000D+00 -.558793544769D-08  .810000000000D+02
     .158406000000D+06  .400000000000D+01
